P/2019 T5 (ATLAS),e,33.4320,247.6758,189.5797,7.999326,0.0435636,0.80905386,28.9647,05/27.0/2021,2000,g 15.0,4.0
# From MPEC 2021-J28
P/2019 T6 (PANSTARRS),e,18.6945,71.2937,328.9099,5.434545,0.0777964,0.62257909,44.0462,05/27.0/2021,2000,g 15.5,4.0
# From MPEC 2021-J28
P/2019 U4 (PANSTARRS),e,11.6940,200.0153,180.9821,3.520614,0.1492026,0.47555639,91.9836,05/27.0/2021,2000,g 19.0,4.0
# From MPEC 2021-J28
C/2019 U5 (PANSTARRS),h,03/30.1955/2023,113.5180,2.6475,181.5648,1.000629,3.622568,2000,4.5,4.0
# From MPEC 2020-AA5
C/2019 U6,e,60.9997,235.6976,329.6574,404.3693,0.0001212,0.99773909,0.0000,06/18.7948/2020,2000,g 14.5,2.0
# From MPC119998
C/2019 V1 (Borisov),e,61.8632,83.1984,51.1885,1766,0.0000133,0.99824592,0.0000,07/16.5035/2020,2000,g 11.0,4.0
# From MPEC 2021-J28
P/2019 V2 (Groeller),e,11.8044,189.1793,336.0018,7.513310,0.0478583,0.33178160,10.4946,05/27.0/2021,2000,g 10.0,4.0
# From MPC119998
P/2019 W1 (PANSTARRS),e,23.4625,35.3954,18.6963,4.550151,0.1015466,0.26636487,76.1845,05/27.0/2021,2000,g 12.9,4.0
# From MPEC 2021-J28
P/2019 X1 (Pruyne),e,10.2453,43.6933,36.8196,6.173298,0.0642582,0.30285013,43.4125,05/27.0/2021,2000,g 10.4,4.0
# From MPC119999
C/2019 Y1 (ATLAS),e,73.2703,31.5210,57.9673,85.75095,0.0012412,0.99030409,0.0000,03/15.5866/2020,2000,g 13.7,4.0
# From MPEC 2020-L06
C/2019 Y4 (ATLAS),e,45.3791,120.5750,177.3192,566.7157,0.0000731,0.99955336,0.0000,05/31.0613/2020,2000,g 11.8,6.0
# From MPEC 2020-L06
C/2019 Y4-A (ATLAS),h,05/31.0445/2020,45.8209,120.9312,177.2618,1.001369,0.251248,2000,11.6,6.0
# From MPEC 2020-L06
C/2019 Y4-B (ATLAS),e,45.4554,120.6270,177.3950,1216,0.0000232,0.99979217,0.0000,05/31.0232/2020,2000,g 12.8,6.0
# From MPEC 2020-L06
C/2019 Y4-C (ATLAS),h,05/31.0025/2020,45.6031,120.6569,177.2952,1.002087,0.252300,2000,12.7,6.0
# From MPEC 2020-L06
C/2019 Y4-D (ATLAS),e,45.6446,121.0373,177.4337,67.70284,0.0017693,0.99628239,0.0000,05/31.1202/2020,2000,g 12.5,6.0
# From MPEC 2020-L06
C/2020 A2 (Iwamoto),e,120.7403,286.3759,68.2016,1329,0.0000203,0.99926437,0.0000,01/08.3881/2020,2000,g 13.5,4.0
# From MPEC 2020-L06
C/2020 A3 (ATLAS),h,07/29.7789/2019,146.7756,120.3790,271.1718,1.025552,5.839301,2000,8.0,4.0
# From MPEC 2020-L06
C/2020 B3 (Rankin),e,20.7072,185.8321,325.0558,1305,0.0000209,0.99743741,0.0000,10/19.6853/2019,2000,g 13.0,4.0
# From MPEC 2021-J28
C/2020 F2 (ATLAS),h,07/16.4183/2022,163.5785,250.2553,48.3713,1.003500,8.816969,2000,4.5,4.0
# From MPEC 2020-L06
C/2020 F3 (NEOWISE),e,128.9367,61.0141,37.2689,352.8497,0.0001487,0.99916464,0.0000,07/03.6641/2020,2000,g 12.5,3.2
# From MPEC 2021-J28
C/2020 F5 (MASTER),h,03/24.3098/2021,51.7142,350.6201,311.0824,1.003821,4.326032,2000,6.5,3.2
# From MPEC 2020-L06
C/2020 F6 (PANSTARRS),e,174.5822,207.8869,344.6136,397.1911,0.0001245,0.99116019,0.0000,04/11.6815/2020,2000,g 14.5,2.8
# From MPEC 2021-J28
C/2020 F7 (Lemmon),e,93.9535,321.8869,227.9778,737.0227,0.0000493,0.99276543,0.0000,11/14.0678/2021,2000,g  7.0,4.0
# From MPEC 2020-KB7
C/2020 F8 (SWAN),e,110.7785,259.9983,68.2087,272.4909,0.0002191,0.99842133,0.0000,05/27.5771/2020,2000,g 10.0,4.0
# From MPEC 2021-J28
C/2020 H5 (Robinson),e,70.2202,210.6358,326.3985,3635,0.0000045,0.99742916,0.0000,12/11.9114/2020,2000,g  5.0,4.0
# From MPEC 2021-J28
C/2020 H6 (ATLAS),h,10/01.0594/2021,79.9621,213.7055,20.3462,1.000825,4.702903,2000,8.0,3.2
# From MPEC 2021-J28
C/2020 J1 (SONEAR),h,04/18.5713/2021,142.2935,226.5819,341.7483,1.000243,3.355137,2000,8.5,3.2
# From MPEC 2021-J28
C/2020 K1 (PANSTARRS),e,89.6537,94.3679,213.9602,7840,0.0000014,0.99960779,0.0000,05/09.1574/2023,2000,g  5.5,4.0
# From MPEC 2021-J28
C/2020 M3 (ATLAS),e,23.4723,71.2463,328.4516,26.86151,0.0070796,0.95278639,1.5106,05/27.0/2021,2000,g 14.5,4.0
# From MPEC 2021-J28
A/2020 M4,e,160.1262,348.6259,104.6428,7747,0.0000014,0.99923160,0.0000,11/23.8834/2020,2000,g 14.5,2.0
# From MPEC 2021-J28
C/2020 M5 (ATLAS),e,93.2223,352.0960,126.3390,25333,0.0000002,0.99988140,0.0000,08/19.8824/2021,2000,g  9.0,4.0
# From MPEC 2021-J28
C/2020 N1 (PANSTARRS),h,03/12.2237/2021,29.7032,279.9814,186.7695,1.000573,1.320690,2000,12.5,4.0
# From MPEC 2021-J28
C/2020 O2 (Amaral),h,08/28.4287/2021,71.7469,256.7560,10.2849,1.002521,4.862273,2000,8.0,3.2
# From MPEC 2021-J28
C/2020 P3 (ATLAS),e,61.8850,19.4864,82.2474,6907,0.0000017,0.99901371,0.0000,04/20.8665/2021,2000,g  6.0,4.0
# From MPEC 2021-J28
C/2020 R4 (ATLAS),e,164.4633,323.2731,46.7121,97.15646,0.0010292,0.98941268,0.0000,03/01.9377/2021,2000,g 13.5,4.0
# From MPEC 2021-J28
C/2020 R7 (ATLAS),e,114.8923,268.2804,347.8209,7433,0.0000015,0.99960223,0.0000,09/16.2622/2022,2000,g  7.0,3.2
# From MPEC 2021-J28
C/2020 S8 (Lemmon),e,108.5189,24.0517,160.3344,275.6722,0.0002153,0.99142515,0.0000,04/10.9308/2021,2000,g 12.5,4.0
# From MPEC 2021-J28
C/2020 T2 (Palomar),e,27.8729,83.0483,150.3820,312.6602,0.0001783,0.99342837,0.0000,07/11.1452/2021,2000,g 11.0,3.2
# From MPEC 2020-L06
P/2020 G1 (Pimentel),e,18.4775,240.0937,207.6569,3.610470,0.1436675,0.85988646,62.5856,05/27.0/2021,2000,g 17.0,4.0
# From MPEC 2020-L06
C/2020 H2 (Pruyne),e,125.0354,277.6410,26.7052,189.5354,0.0003777,0.99560148,0.0000,04/27.6168/2020,2000,g 18.0,4.0
# From MPEC 2020-HM1
C/2020 H3 (Wierzchos),p,06/05.7162/2020,62.5292,30.4456,2.300288,270.6227,2000,13.5,4.0
# From MPEC 2020-L06
C/2020 H4 (Leonard),e,84.5145,307.7361,117.6021,48.14007,0.0029508,0.98074387,0.0000,08/29.5224/2020,2000,g 15.0,3.2
# From MPEC 2020-L06
C/2020 H5 (Robinson),e,70.2608,210.5930,325.0623,1057,0.0000287,0.99114048,0.0000,11/14.7870/2020,2000,g  5.0,4.0
# From MPEC 2020-L06
C/2020 H6 (ATLAS),h,09/30.9854/2021,79.9719,213.6975,20.3185,1.000852,4.704641,2000,8.0,3.2
# From MPEC 2020-KB7
C/2020 H7 (Lemmon),e,135.9235,323.5194,82.6780,1405,0.0000187,0.99685380,0.0000,06/02.9510/2020,2000,g 11.0,4.0
# From MPEC 2020-KB7
C/2020 H8 (PANSTARRS),p,06/06.7207/2020,99.7116,129.2192,4.678446,68.3225,2000,10.5,4.0
# From MPEC 2020-L06
A/2020 H9,e,137.8767,213.1283,312.9009,545.7383,0.0000773,0.99527355,0.0000,12/21.3906/2019,2000,g 18.0,2.0
# From MPEC 2020-L06
C/2020 J1 (SONEAR),e,142.2925,226.5921,341.7347,479.0110,0.0000940,0.99298567,0.0000,04/19.4075/2021,2000,g  8.5,3.2
# From MPEC 2020-L06
C/2020 K1 (PANSTARRS),h,05/08.0355/2023,89.6557,94.3589,213.9261,1.000880,3.073289,2000,5.5,4.0
# From MPEC 2020-KF5
C/2020 K2 (PANSTARRS),p,12/30.6730/2018,89.7510,34.2348,8.177098,285.5819,2000,6.5,4.0
# From MPEC 2020-KF9
C/2020 K3 (Leonard),p,06/01.0032/2020,129.0152,64.4924,1.583069,28.3546,2000,14.5,4.0
# From MPEC 2020-L06
C/2020 K4 (PANSTARRS),e,125.5644,264.0986,308.7751,23.87285,0.0084498,0.92656076,3.7964,05/27.0/2021,2000,g 16.5,4.0
# From MPEC 2020-L06
C/2020 K5 (PANSTARRS),h,06/05.5828/2021,67.1565,86.1608,249.5938,1.001567,1.535493,2000,11.0,4.0
# From MPC xxxxx
C/2020 K6 (Rankin),h,09/15.2342/2021,103.6442,291.5264,44.2732,1.003006,5.868616,2000,8.0,4.0
# From MPEC 2020-L09
C/2020 K7 (PANSTARRS),p,10/05.3027/2021,34.5520,60.8413,5.644571,287.4776,2000,8.0,4.0
# From MPEC 2021-BE3
C/2020 K8 (Catalina-ATLAS),h,09/14.5176/2020,31.4172,181.5223,260.0446,1.000236,0.474460,2000,15.0,3.2
# From MPEC 2021-BE3
P/2020 K9 (Lemmon-PANSTARRS),e,23.2099,166.2406,196.8863,4.199205,0.1145390,0.32143051,11.9283,05/27.0/2021,2000,g 12.5,4.0
# From MPEC 2020-K19
P/2020 M1 (PANSTARRS),e,8.6576,142.8738,68.5281,5.137121,0.0846495,0.48071047,44.0321,05/27.0/2021,2000,g 14.5,4.0
# From MPEC 2021-AJ0
C/2020 M3 (ATLAS),e,23.4723,71.2463,328.4516,26.86105,0.0070798,0.95278558,1.5106,05/27.0/2021,2000,g 14.5,4.0
# From MPEC 2021-BE3
C/2020 M3 (ATLAS),e,23.4723,71.2463,328.4516,26.86117,0.0070797,0.95278579,1.5106,05/27.0/2021,2000,g 14.5,4.0
# From MPEC 2020-K19
A/2020 M4,e,160.1261,348.6277,104.6510,8950,0.0000012,0.99933489,0.0000,11/23.9477/2020,2000,g 14.5,2.0
# From MPEC 2021-BE3
C/2020 M5 (ATLAS),e,93.2222,352.0959,126.3393,25044,0.0000002,0.99988004,0.0000,08/19.8825/2021,2000,g  9.0,4.0
# From MPEC 2021-BE3
C/2020 N1 (PANSTARRS),h,03/12.2268/2021,29.7032,279.9813,186.7698,1.000527,1.320704,2000,12.5,4.0
# From MPEC 2020-W26
C/2020 N2 (ATLAS),e,161.0342,257.0744,331.2129,108.3714,0.0008736,0.98344442,0.0000,08/23.6805/2020,2000,g 16.0,3.2
# From MPEC 2020-SI8
P/2020 O1 (Lemmon-PANSTARRS),e,5.2259,175.9769,104.5487,2.644578,0.2291762,0.11951283,89.2049,05/27.0/2021,2000,g 15.5,4.0
# From MPEC 2021-BE3
C/2020 O2 (Amaral),h,08/28.1647/2021,71.7519,256.7518,10.2337,1.002189,4.864489,2000,8.0,3.2
# From MPEC 2020-SI8
P/2020 O3 (PANSTARRS),e,8.4409,266.8506,81.5429,4.654177,0.0981612,0.10473146,11.4664,05/27.0/2021,2000,g 12.0,4.0
# From MPEC 2021-BE3
C/2020 P1 (NEOWISE),h,10/20.1792/2020,45.0593,53.5336,8.8931,1.000277,0.342107,2000,14.0,3.2
# From MPEC 2021-BE3
C/2020 P3 (ATLAS),e,61.8848,19.4861,82.2477,6778,0.0000018,0.99899493,0.0000,04/20.8682/2021,2000,g  6.0,4.0
# From MPEC 2021-BE3
C/2020 Q1 (Borisov),e,142.9188,52.4074,9.9044,59.15876,0.0021661,0.97777326,0.0000,08/14.6530/2020,2000,g 14.0,4.0
# From MPEC 2021-BE3
C/2020 R2 (PANSTARRS),e,53.2233,195.0924,211.7017,409.7373,0.0001188,0.98854788,0.0000,02/24.2613/2022,2000,g  9.0,4.0
# From MPEC 2021-BE3
C/2020 R4 (ATLAS),e,164.4628,323.2764,46.7276,95.93339,0.0010489,0.98927965,0.0000,03/01.9425/2021,2000,g 13.5,4.0
# From MPEC 2020-W26
P/2020 R5 (PANSTARRS),e,11.4538,272.9731,82.3709,4.980417,0.0886759,0.31460363,32.2341,05/27.0/2021,2000,g  9.5,6.0
# From MPEC 2020-W26
C/2020 R6 (Rankin),e,82.8218,12.1745,271.9558,558.1324,0.0000747,0.99439858,0.0000,09/10.2014/2019,2000,g 11.0,4.0
# From MPEC 2021-BE3
C/2020 R7 (ATLAS),e,114.8914,268.2772,347.8315,6160,0.0000020,0.99952014,0.0000,09/16.2561/2022,2000,g  7.0,3.2
# From MPEC 2021-BE3
P/2020 S1 (PANSTARRS),e,13.7340,129.4590,254.8910,5.981000,0.0673819,0.50721566,8.7601,05/27.0/2021,2000,g 14.0,4.0
# From MPEC 2021-BE3
C/2020 S2 (PANSTARRS),e,22.3974,197.6826,202.2731,10.18555,0.0303199,0.82759245,4.7314,05/27.0/2021,2000,g 17.0,4.0
# From MPEC 2021-BE3
